NORAD_CAT_ID,OBJECT_NAME,OBJECT_TYPE,EPOCH,MEAN_MOTION,ECCENTRICITY,INCLINATION,RA_OF_ASC_NODE,ARG_OF_PERICENTER,MEAN_ANOMALY,BSTAR,MEAN_MOTION_DOT,MEAN_MOTION_DDOT,TLE_LINE0,TLE_LINE1,TLE_LINE2,SEMIMAJOR_AXIS,PERIOD,APOGEE,PERIGEE,DECAYED
49436.0,STARLINK-3049,PAYLOAD,2024-03-31 20:40:18,15.08834338,0.0001685,53.2167,146.6864,88.3478,271.7707,-5.2865e-05,-1.129e-05,0.0,0 STARLINK-3049,1 49436U 21104AE  24091.86132633 -.00001129  00000-0 -52865-4 0  9997,2 49436  53.2167 146.6864 0001685  88.3478 271.7707 15.08834338132050,6917.898,95.438,540.928,538.597,0.0
49436.0,STARLINK-3049,PAYLOAD,2024-04-01 10:58:46,15.08852712,0.0001432,53.2156,144.0108,90.2063,269.9093,0.00028565,4.263e-05,0.0,0 STARLINK-3049,1 49436U 21104AE  24092.45747930  .00004263  00000-0  28565-3 0  9994,2 49436  53.2156 144.0108 0001432  90.2063 269.9093 15.08852712133215,6917.842,95.437,540.697,538.716,0.0
49436.0,STARLINK-3049,PAYLOAD,2024-04-01 20:31:05,15.08845847,0.0001633,53.2168,142.2268,78.4663,281.6513,0.0002073,3.013e-05,0.0,0 STARLINK-3049,1 49436U 21104AE  24092.85492338  .00003013  00000-0  20730-3 0  9995,2 49436  53.2168 142.2268 0001633  78.4663 281.6513 15.08845847133277,6917.863,95.437,540.857,538.598,0.0
49436.0,STARLINK-3049,PAYLOAD,2024-04-02 10:49:33,15.08840318,0.0001148,53.2159,139.5498,75.872,284.24,0.00013361,1.839e-05,0.0,0 STARLINK-3049,1 49436U 21104AE  24093.45108406  .00001839  00000-0  13361-3 0  9998,2 49436  53.2159 139.5498 0001148  75.8720 284.2400 15.08840318133369,6917.879,95.438,540.539,538.95,0.0
49436.0,STARLINK-3049,PAYLOAD,2024-04-03 12:15:43,15.08847599,0.0001278,53.2153,134.7898,92.7577,267.3561,-2.6953e-06,-3.31e-06,0.0,0 STARLINK-3049,1 49436U 21104AE  24094.51092216 -.00000331  00000-0 -26953-5 0  9998,2 49436  53.2153 134.7898 0001278  92.7577 267.3561 15.08847599133522,6917.857,95.437,540.606,538.838,0.0
49436.0,STARLINK-3049,PAYLOAD,2024-04-04 08:55:44,15.08842941,0.0001292,53.2149,130.9227,85.3935,274.7205,5.1858e-05,5.38e-06,0.0,0 STARLINK-3049,1 49436U 21104AE  24095.37204094  .00000538  00000-0  51858-4 0  9990,2 49436  53.2149 130.9227 0001292  85.3935 274.7205 15.08842941132581,6917.871,95.437,540.63,538.843,0.0
49436.0,STARLINK-3049,PAYLOAD,2024-04-05 08:46:30,15.08848648,0.0001363,53.2159,126.4618,90.7446,269.3702,0.0001019,1.335e-05,0.0,0 STARLINK-3049,1 49436U 21104AE  24096.36563308  .00001335  00000-0  10190-3 0  9995,2 49436  53.2159 126.4618 0001363  90.7446 269.3702 15.08848648133800,6917.854,95.437,540.662,538.776,0.0
49436.0,STARLINK-3049,PAYLOAD,2024-04-06 02:15:46,15.08832231,0.000135,53.2157,123.1919,87.085,273.0297,-1.6449e-05,-5.5e-06,0.0,0 STARLINK-3049,1 49436U 21104AE  24097.09428813 -.00000550  00000-0 -16449-4 0  9991,2 49436  53.2157 123.1919 0001350  87.0850 273.0297 15.08832231133914,6917.904,95.438,540.703,538.835,0.0
49436.0,STARLINK-3049,PAYLOAD,2024-04-06 08:37:19,15.08828816,0.0001371,53.2155,122.0005,86.9761,273.1388,-4.2869e-05,-9.7e-06,0.0,0 STARLINK-3049,1 49436U 21104AE  24097.35925283 -.00000970  00000-0 -42869-4 0  9994,2 49436  53.2155 122.0005 0001371  86.9761 273.1388 15.08828816132889,6917.915,95.438,540.728,538.831,0.0
49436.0,STARLINK-3049,PAYLOAD,2024-04-06 18:09:38,15.08831598,0.0001434,53.2162,120.217,88.2521,271.8635,-4.5791e-05,-1.016e-05,0.0,0 STARLINK-3049,1 49436U 21104AE  24097.75669339 -.00001016  00000-0 -45791-4 0  9994,2 49436  53.2162 120.2170 0001434  88.2521 271.8635 15.08831598132947,6917.906,95.438,540.763,538.779,0.0
49436.0,STARLINK-3049,PAYLOAD,2024-04-07 08:28:06,15.08840616,0.0001498,53.216,117.5415,90.0542,270.0622,-1.2039e-05,-4.8e-06,0.0,0 STARLINK-3049,1 49436U 21104AE  24098.35284978 -.00000480  00000-0 -12039-4 0  9996,2 49436  53.2160 117.5415 0001498  90.0542 270.0622 15.08840616134108,6917.879,95.438,540.78,538.707,0.0
49436.0,STARLINK-3049,PAYLOAD,2024-04-07 18:00:24,15.08842938,0.0001481,53.216,115.7573,90.5809,269.5353,4.3193e-07,-2.81e-06,0.0,0 STARLINK-3049,1 49436U 21104AE  24098.75028835 -.00000281  00000-0  43193-6 0  9993,2 49436  53.2160 115.7573 0001481  90.5809 269.5353 15.08842938133096,6917.871,95.437,540.761,538.712,0.0
49436.0,STARLINK-3049,PAYLOAD,2024-04-08 11:29:39,15.08838673,0.0001598,53.2161,112.4872,95.5732,264.5442,0.00021422,3.123e-05,0.0,0 STARLINK-3049,1 49436U 21104AE  24099.47893207  .00003123  00000-0  21422-3 0  9991,2 49436  53.2161 112.4872 0001598  95.5732 264.5442 15.08838673134278,6917.884,95.438,540.855,538.644,0.0
49436.0,STARLINK-3049,PAYLOAD,2024-04-09 00:12:45,15.08841293,0.000166,53.2164,110.1084,93.7946,266.3236,0.00012891,1.764e-05,0.0,0 STARLINK-3049,1 49436U 21104AE  24100.00885428  .00001764  00000-0  12891-3 0  9998,2 49436  53.2164 110.1084 0001660  93.7946 266.3236 15.08841293133281,6917.876,95.437,540.89,538.593,0.0
49436.0,STARLINK-3049,PAYLOAD,2024-04-09 08:09:40,15.08841107,0.0001633,53.2164,108.6211,93.0242,267.0938,8.7872e-05,1.111e-05,0.0,0 STARLINK-3049,1 49436U 21104AE  24100.34005527  .00001111  00000-0  87872-4 0  9997,2 49436  53.2164 108.6211 0001633  93.0242 267.0938 15.08841107133334,6917.877,95.437,540.872,538.612,0.0
49436.0,STARLINK-3049,PAYLOAD,2024-04-09 17:41:59,15.08841413,0.0001641,53.2164,106.8365,91.7246,268.3934,8.0746e-05,9.97e-06,0.0,0 STARLINK-3049,1 49436U 21104AE  24100.73749534  .00000997  00000-0  80746-4 0  9997,2 49436  53.2164 106.8365 0001641  91.7246 268.3934 15.08841413134467,6917.876,95.437,540.876,538.606,0.0
49436.0,STARLINK-3049,PAYLOAD,2024-04-10 08:00:27,15.08845157,0.0001605,53.2165,104.1598,92.1437,267.9739,6.2267e-05,7.03e-06,0.0,0 STARLINK-3049,1 49436U 21104AE  24101.33365210  .00000703  00000-0  62267-4 0  9992,2 49436  53.2165 104.1598 0001605  92.1437 267.9739 15.08845157133482,6917.865,95.437,540.84,538.619,0.0
49436.0,STARLINK-3049,PAYLOAD,2024-04-10 17:32:46,15.08841523,0.0001606,53.2166,102.3755,91.7113,268.4063,4.3961e-05,4.12e-06,0.0,0 STARLINK-3049,1 49436U 21104AE  24101.73109402  .00000412  00000-0  43961-4 0  9992,2 49436  53.2166 102.3755 0001606  91.7113 268.4063 15.08841523133541,6917.876,95.437,540.852,538.63,0.0
49436.0,STARLINK-3049,PAYLOAD,2024-04-11 04:40:28,15.08841293,0.0001556,53.2164,100.2939,92.4305,267.6865,7.4891e-05,9.04e-06,0.0,0 STARLINK-3049,1 49436U 21104AE  24102.19477316  .00000904  00000-0  74891-4 0  9997,2 49436  53.2164 100.2939 0001556  92.4305 267.6865 15.08841293134686,6917.876,95.437,540.818,538.665,0.0
49436.0,STARLINK-3049,PAYLOAD,2024-04-11 09:26:37,15.08843063,0.0001566,53.2165,99.402,91.3477,268.7695,7.4629e-05,9e-06,0.0,0 STARLINK-3049,1 49436U 21104AE  24102.39349188  .00000900  00000-0  74629-4 0  9999,2 49436  53.2165  99.4020 0001566  91.3477 268.7695 15.08843063133641,6917.871,95.437,540.819,538.653,0.0
49436.0,STARLINK-3049,PAYLOAD,2024-04-11 17:23:33,15.08842891,0.0001557,53.2166,97.9153,91.1544,268.9627,7.8844e-05,9.67e-06,0.0,0 STARLINK-3049,1 49436U 21104AE  24102.72469171  .00000967  00000-0  78844-4 0  9997,2 49436  53.2166  97.9153 0001557  91.1544 268.9627 15.08842891133695,6917.872,95.437,540.814,538.659,0.0
49436.0,STARLINK-3049,PAYLOAD,2024-04-12 09:17:24,15.08844709,0.0001562,53.217,94.9413,91.7476,268.3695,7.0011e-05,8.27e-06,0.0,0 STARLINK-3049,1 49436U 21104AE  24103.38708942  .00000827  00000-0  70011-4 0  9995,2 49436  53.2170  94.9413 0001562  91.7476 268.3695 15.08844709134861,6917.866,95.437,540.812,538.65,0.0
49436.0,STARLINK-3049,PAYLOAD,2024-04-13 04:22:02,15.0883895,0.000158,53.2173,91.3719,95.1764,264.9409,3.1658e-05,2.16e-06,0.0,0 STARLINK-3049,1 49436U 21104AE  24104.18197408  .00000216  00000-0  31658-4 0  9999,2 49436  53.2173  91.3719 0001580  95.1764 264.9409 15.08838950134981,6917.884,95.438,540.842,538.656,0.0
49436.0,STARLINK-3049,PAYLOAD,2024-04-13 09:08:11,15.08839863,0.0001575,53.2173,90.4798,94.7576,265.3596,2.447e-05,1.01e-06,0.0,0 STARLINK-3049,1 49436U 21104AE  24104.38069347  .00000101  00000-0  24470-4 0  9998,2 49436  53.2173  90.4798 0001575  94.7576 265.3596 15.08839863133949,6917.881,95.438,540.835,538.656,0.0
49436.0,STARLINK-3049,PAYLOAD,2024-04-14 05:48:12,15.08837793,0.0001636,53.218,86.6131,103.9305,256.187,2.0787e-05,4.3e-07,0.0,0 STARLINK-3049,1 49436U 21104AE  24105.24181563  .00000043  00000-0  20787-4 0  9991,2 49436  53.2180  86.6131 0001636 103.9305 256.1870 15.08837793135143,6917.887,95.438,540.884,538.62,0.0
49436.0,STARLINK-3049,PAYLOAD,2024-04-15 07:14:23,15.08835946,0.0001613,53.2184,81.8553,103.6653,256.4519,5.9978e-05,6.67e-06,0.0,0 STARLINK-3049,1 49436U 21104AE  24106.30165974  .00000667  00000-0  59978-4 0  9993,2 49436  53.2184  81.8553 0001613 103.6653 256.4519 15.08835946135309,6917.893,95.438,540.874,538.642,0.0
49436.0,STARLINK-3049,PAYLOAD,2024-04-16 07:05:10,15.08845337,0.0001561,53.218,77.3985,91.8891,268.228,0.00013255,1.822e-05,0.0,0 STARLINK-3049,1 49436U 21104AE  24107.29525627  .00001822  00000-0  13255-3 0  9998,2 49436  53.2180  77.3985 0001561  91.8891 268.2280 15.08845337135455,6917.864,95.437,540.809,538.649,0.0
49436.0,STARLINK-3049,PAYLOAD,2024-04-16 15:02:05,15.08847013,0.0001339,53.218,75.9117,92.3069,267.8076,0.00016761,2.381e-05,0.0,0 STARLINK-3049,1 49436U 21104AE  24107.62645363  .00002381  00000-0  16761-3 0  9991,2 49436  53.2180  75.9117 0001339  92.3069 267.8076 15.08847013134430,6917.859,95.437,540.65,538.798,0.0
49436.0,STARLINK-3049,PAYLOAD,2024-04-17 05:20:32,15.08871973,0.0001477,53.2178,73.236,90.0663,270.0499,0.00047995,7.365e-05,0.0,0 STARLINK-3049,1 49436U 21104AE  24108.22260019  .00007365  00000-0  47995-3 0  9999,2 49436  53.2178  73.2360 0001477  90.0663 270.0499 15.08871973135591,6917.783,95.436,540.669,538.626,0.0
49436.0,STARLINK-3049,PAYLOAD,2024-04-17 06:55:55,15.08874029,0.0001452,53.2178,72.9386,92.9234,267.1924,0.00049698,7.638e-05,0.0,0 STARLINK-3049,1 49436U 21104AE  24108.28883794  .00007638  00000-0  49698-3 0  9991,2 49436  53.2178  72.9386 0001452  92.9234 267.1924 15.08874029134531,6917.776,95.435,540.646,538.637,0.0
